GOES 16                 
1 41866U 16071A   26196.10860226 -.00000100  00000+0  00000+0 0  9999
2 41866   0.4037  85.4673 0000535  95.8659  46.0287  1.00270970 35381
TIANLIAN 1-04           
1 41869U 16072A   26196.16437472  .00000020  00000+0  00000+0 0  9992
2 41869   0.9380  82.7265 0044096  90.5381 355.7017  1.00271175 35582
WGS F8 (USA 272)        
1 41879U 16075A   26196.13169903 -.00000212  00000+0  00000+0 0  9998
2 41879   0.0181  42.7619 0000211 319.2892 128.1618  1.00269866 35102
FENGYUN 4A              
1 41882U 16077A   26196.22515098 -.00000368  00000+0  00000+0 0  9996
2 41882   2.3910  79.9549 0008510 159.4801 258.4394  1.00268085 35211
ECHOSTAR 19             
1 41893U 16079A   26195.82501098 -.00000147  00000+0  00000+0 0  9995
2 41893   0.0166  50.3681 0001248  71.5406  10.6711  1.00271542 34983
JCSAT-110A (JCSAT-15)   
1 41903U 16082A   26196.07421034 -.00000360  00000+0  00000+0 0  9997
2 41903   0.0170  43.2500 0000444  99.3428 287.1097  1.00269933 35036
STAR ONE D1             
1 41904U 16082B   26195.82761100  .00000000  00000+0  00000+0 0  9991
2 41904   0.0421  70.9000 0002343  59.1727  16.5964  1.00268571 35050
TJS-2                   
1 41911U 17001A   26196.19608332 -.00000016  00000+0  00000+0 0  9997
2 41911   0.9035  84.9472 0000802 109.1529 236.0682  1.00270565 34994
SBIRS GEO-4 (USA 273)   
1 41937U 17004A   26196.13360793  .00000117  00000+0  00000+0 0  9999
2 41937   2.2958  43.9833 0002589  66.0511 252.7004  1.00281942 34874
HISPASAT 36W-1          
1 41942U 17006A   26195.05288012 -.00000251  00000+0  00000+0 0  9990
2 41942   0.0090 302.2762 0001035 169.9893 162.6895  1.00270272 34518
TELKOM 3S               
1 41944U 17007A   26195.22588949 -.00000369  00000+0  00000+0 0  9994
2 41944   0.0183  79.6116 0001973  31.8917  19.9065  1.00270767 34417
INTELSAT 32E (IS-32E)   
1 41945U 17007B   26196.17683823  .00000000  00000+0  00000+0 0  9998
2 41945   0.0232  53.6422 0000210 271.7559 348.1175  1.00266446 34503
ECHOSTAR 23             
1 42070U 17014A   26196.03616360 -.00000066  00000+0  00000+0 0  9996
2 42070   0.0174  34.0800 0002085  75.0026  86.9209  1.00270617 34204
WGS F9 (USA 275)        
1 42075U 17016A   26194.70121131  .00000000  00000+0  00000+0 0  9999
2 42075   0.0259  29.5332 0000500 204.3837 298.1244  1.00271906 34162
SES-10                  
1 42432U 17017A   26196.13568402 -.00000282  00000+0  00000+0 0  9995
2 42432   0.0181  47.2869 0002572  70.8741 156.7576  1.00268375 34035
CHINASAT 16 (SJ-13)     
1 42662U 17018A   26195.01060949 -.00000358  00000+0  00000+0 0  9994
2 42662   0.0866  88.8103 0005042 135.5393 181.8733  1.00268531 34015
KOREASAT 7              
1 42691U 17023A   26195.23517312 -.00000368  00000+0  00000+0 0  9998
2 42691   0.0260  50.8541 0000947  95.1528 346.6529  1.00271655 33643
SGDC                    
1 42692U 17023B   26195.39610603 -.00000257  00000+0  00000+0 0  9990
2 42692   0.0206  64.8434 0002213  56.8675 238.2940  1.00270708 33680
GSAT-9                  
1 42695U 17024A   26196.11969580 -.00000294  00000+0  00000+0 0  9997
2 42695   0.0857  91.2150 0002319  33.5278 308.5769  1.00267623 33572
INMARSAT 5-F4           
1 42698U 17025A   26195.07125353  .00000069  00000+0  00000+0 0  9996
2 42698   0.0033 109.2613 0000436  82.2635 182.5773  1.00272708 33543
SES-15                  
1 42709U 17026A   26196.03252360  .00000051  00000+0  00000+0 0  9997
2 42709   0.0255 332.5228 0000276 128.9444  73.9557  1.00268637  7712
QZS-2 (MICHIBIKI-2)     
1 42738U 17028A   26195.44629182 -.00000120  00000+0  00000+0 0  9993
2 42738  39.3876 242.7519 0757556 269.5906  83.0468  1.00276942  7900
VIASAT-2                
1 42740U 17029A   26196.04419617 -.00000274  00000+0  00000+0 0  9994
2 42740   0.0173 313.1592 0000206 281.3053   4.4570  1.00270601 33489
EUTELSAT 172B           
1 42741U 17029B   26196.19628311 -.00000016  00000+0  00000+0 0  9998
2 42741   0.0241 127.3482 0000166 185.4653 222.8873  1.00269839 34028
GSAT-19                 
1 42747U 17031A   26196.13880794  .00000116  00000+0  00000+0 0  9996
2 42747   0.0389  88.1289 0006230   1.6920 301.0162  1.00269759 33425
ECHOSTAR 21             
1 42749U 17032A   26195.56110044  .00000060  00000+0  00000+0 0  9997
2 42749   1.7704 357.4644 0001958 111.2018  36.0243  1.00273285 33379
BULGARIASAT-1           
1 42801U 17038A   26196.12970791  .00000000  00000+0  00000+0 0  9992
2 42801   0.0357  70.9268 0003168  57.8005 212.8218  1.00271735 33126
HELLAS-SAT 3            
1 42814U 17040A   26196.13707461  .00000143  00000+0  00000+0 0  9990
2 42814   0.0499  48.6755 0003190  27.4462 305.1964  1.00271232 33086
GSAT-17                 
1 42815U 17040B   26196.12317065 -.00000267  00000+0  00000+0 0  9995
2 42815   0.0721  88.3916 0002244 167.5735 174.8395  1.00270527 33066
INTELSAT 35E (IS-35E)   
1 42818U 17041A   26196.12251454  .00000000  00000+0  00000+0 0  9992
2 42818   0.0258  58.3427 0001662  52.7108 191.5252  1.00266844 33098
COSMOS 2520             
1 42907U 17046A   26194.92639485  .00000132  00000+0  00000+0 0  9992
2 42907   0.0371 107.3958 0001015 352.7379 210.1305  1.00269251 32666
TDRS 13                 
1 42915U 17047A   26196.12710788 -.00000109  00000+0  00000+0 0  9997
2 42915   3.4594   3.4149 0014751 111.3734 212.5441  1.00271604 32620
